E-KAGAKU-1              
1 65943U 98067XQ  26071.17564638  .00234543  00000+0  11330-2 0  9993
2 65943  51.6240  44.4659 0005792  90.6981 269.4685 15.81324294 23896
HRC MONOBLOCK CAMERA    
1 66052U 98067XR  26071.19492497  .00056559  00000+0  62436-3 0  9993
2 66052  51.6281  52.8869 0003762 103.4656 256.6757 15.62501193 22785
HTV-X1                  
1 66174U 25241A   26071.17868471  .00009750  00000+0  42404-3 0  9993
2 66174  51.6347  61.0069 0006009 178.6871 181.4123 15.22858971 21334
SZ-21 MODULE            
1 66515U 25246C   26070.66510517  .00042405  00000+0  36183-3 0  9996
2 66515  41.4734 191.1990 0001230 305.0978  54.9749 15.68721611 18382
SHENZHOU-22             
1 66645U 25272A   26070.76324018  .00028963  00000+0  34031-3 0  9992
2 66645  41.4661 195.5440 0006799 284.6024  75.4061 15.60782980267527
SOYUZ-MS 28             
1 66664U 25275A   26071.15917149  .00009166  00000+0  17667-3 0  9993
2 66664  51.6325  60.1463 0007984 183.4136 176.6799 15.48595269556731
DUPLEX                  
1 66906U 98067XS  26071.15463220  .00037391  00000+0  52373-3 0  9991
2 66906  51.6293  57.1200 0002551 122.9949 237.1288 15.56408332 15519
ISS OBJECT XT           
1 66907U 98067XT  26071.19309498  .00175431  00000+0  13957-2 0  9994
2 66907  51.6250  52.8597 0004704  94.7778 265.3756 15.70120533 15571
ISS OBJECT XU           
1 66908U 98067XU  26071.19109037  .00173902  00000+0  13761-2 0  9996
2 66908  51.6251  52.8423 0004850  95.5022 264.6529 15.70253790 15576
SILVERSAT               
1 66909U 98067XV  26071.18756588  .00230471  00000+0  15879-2 0  9992
2 66909  51.6249  52.0679 0005428  93.6368 266.5252 15.73352402 15581
ISS OBJECT XW           
1 66910U 98067XW  26071.18907877  .00159057  00000+0  13074-2 0  9998
2 66910  51.6248  52.8254 0005328 101.1641 258.9956 15.69385850 15570
ISS OBJECT XX           
1 66911U 98067XX  26071.17938455  .00288232  00000+0  16961-2 0  9990
2 66911  51.6228  51.2413 0006998  99.7488 260.4302 15.76798851 15585
